{
  "type": "FeatureCollection",
  "features": [
    {
      "type": "Feature",
      "properties": {
        "norad_id": 43783,
        "name": "KAZSTSAT",
        "group": "resource",
        "lat": 16.443259083567433,
        "lon": 29.990539243597212,
        "alt_km": 569.8475168884306,
        "timestamp": "2025-12-23T11:34:47.839622+00:00",
        "meta_object_name": "KAZSTSAT",
        "meta_object_id": "2018-099AB",
        "meta_epoch": "2025-12-23T01:53:46.104576",
        "meta_mean_motion": 14.99368841,
        "meta_eccentricity": 0.0006148,
        "meta_inclination": 97.4519,
        "meta_ra_of_asc_node": 31.8184,
        "meta_arg_of_pericenter": 283.8147,
        "meta_mean_anomaly": 76.2392,
        "meta_ephemeris_type": 0,
        "meta_classification_type": "U",
        "meta_norad_cat_id": 43783,
        "meta_element_set_no": 999,
        "meta_rev_at_epoch": 38491,
        "meta_bstar": 4.7682e-05,
        "meta_mean_motion_dot": 5.27e-06,
        "meta_mean_motion_ddot": 0,
        "tle_line1": "1 43783U 18099AB  25357.07900584  .00000527  00000+0  47682-4 0  9991",
        "tle_line2": "2 43783  97.4519  31.8184 0006148 283.8147  76.2392 14.99368841384916"
      },
      "geometry": {
        "type": "Point",
        "coordinates": [
          29.990539243597212,
          16.443259083567433
        ]
      }
    },
    {
      "type": "Feature",
      "properties": {
        "norad_id": 43831,
        "name": "SAUDISAT 5A",
        "group": "resource",
        "lat": 6.870839486419793,
        "lon": 56.57693754031272,
        "alt_km": 484.350331086207,
        "timestamp": "2025-12-23T11:34:47.839631+00:00",
        "meta_object_name": "SAUDISAT 5A",
        "meta_object_id": "2018-102A",
        "meta_epoch": "2025-12-23T05:15:13.779936",
        "meta_mean_motion": 15.2577962,
        "meta_eccentricity": 0.001121,
        "meta_inclination": 97.3333,
        "meta_ra_of_asc_node": 57.2076,
        "meta_arg_of_pericenter": 43.8297,
        "meta_mean_anomaly": 316.3829,
        "meta_ephemeris_type": 0,
        "meta_classification_type": "U",
        "meta_norad_cat_id": 43831,
        "meta_element_set_no": 999,
        "meta_rev_at_epoch": 38882,
        "meta_bstar": 0.00026596,
        "meta_mean_motion_dot": 6.734e-05,
        "meta_mean_motion_ddot": 0,
        "tle_line1": "1 43831U 18102A   25357.21890949  .00006734  00000+0  26596-3 0  9995",
        "tle_line2": "2 43831  97.3333  57.2076 0011210  43.8297 316.3829 15.25779620388829"
      },
      "geometry": {
        "type": "Point",
        "coordinates": [
          56.57693754031272,
          6.870839486419793
        ]
      }
    },
    {
      "type": "Feature",
      "properties": {
        "norad_id": 43833,
        "name": "SAUDISAT 5B",
        "group": "resource",
        "lat": 71.44218686424715,
        "lon": 37.63489404382249,
        "alt_km": 473.28079115243327,
        "timestamp": "2025-12-23T11:34:47.839640+00:00",
        "meta_object_name": "SAUDISAT 5B",
        "meta_object_id": "2018-102C",
        "meta_epoch": "2025-12-23T04:58:04.363680",
        "meta_mean_motion": 15.26126583,
        "meta_eccentricity": 0.0011952,
        "meta_inclination": 97.343,
        "meta_ra_of_asc_node": 59.9534,
        "meta_arg_of_pericenter": 45.8211,
        "meta_mean_anomaly": 314.4008,
        "meta_ephemeris_type": 0,
        "meta_classification_type": "U",
        "meta_norad_cat_id": 43833,
        "meta_element_set_no": 999,
        "meta_rev_at_epoch": 38893,
        "meta_bstar": 0.0002687,
        "meta_mean_motion_dot": 6.877e-05,
        "meta_mean_motion_ddot": 0,
        "tle_line1": "1 43833U 18102C   25357.20699495  .00006877  00000+0  26870-3 0  9992",
        "tle_line2": "2 43833  97.3430  59.9534 0011952  45.8211 314.4008 15.26126583388933"
      },
      "geometry": {
        "type": "Point",
        "coordinates": [
          37.63489404382249,
          71.44218686424715
        ]
      }
    },
    {
      "type": "Feature",
      "properties": {
        "norad_id": 44622,
        "name": "GAOFEN-10R",
        "group": "resource",
        "lat": 33.35086956611542,
        "lon": 130.3619380039475,
        "alt_km": 621.9689669567933,
        "timestamp": "2025-12-23T11:34:47.839650+00:00",
        "meta_object_name": "GAOFEN-10R",
        "meta_object_id": "2019-066A",
        "meta_epoch": "2025-12-23T04:26:42.551808",
        "meta_mean_motion": 14.82825814,
        "meta_eccentricity": 0.0007152,
        "meta_inclination": 98.0292,
        "meta_ra_of_asc_node": 304.7329,
        "meta_arg_of_pericenter": 11.2366,
        "meta_mean_anomaly": 348.9006,
        "meta_ephemeris_type": 0,
        "meta_classification_type": "U",
        "meta_norad_cat_id": 44622,
        "meta_element_set_no": 999,
        "meta_rev_at_epoch": 33629,
        "meta_bstar": 0.0001961,
        "meta_mean_motion_dot": 1.533e-05,
        "meta_mean_motion_ddot": 0,
        "tle_line1": "1 44622U 19066A   25357.18521472  .00001533  00000+0  19610-3 0  9993",
        "tle_line2": "2 44622  98.0292 304.7329 0007152  11.2366 348.9006 14.82825814336298"
      },
      "geometry": {
        "type": "Point",
        "coordinates": [
          130.3619380039475,
          33.35086956611542
        ]
      }
    },
    {
      "type": "Feature",
      "properties": {
        "norad_id": 44804,
        "name": "CARTOSAT-3",
        "group": "resource",
        "lat": -81.54418724156461,
        "lon": 118.69737079960639,
        "alt_km": 522.2144981962201,
        "timestamp": "2025-12-23T11:34:47.839659+00:00",
        "meta_object_name": "CARTOSAT-3",
        "meta_object_id": "2019-081A",
        "meta_epoch": "2025-12-23T04:03:16.017696",
        "meta_mean_motion": 15.19238109,
        "meta_eccentricity": 0.001369,
        "meta_inclination": 97.4569,
        "meta_ra_of_asc_node": 56.6191,
        "meta_arg_of_pericenter": 50.5641,
        "meta_mean_anomaly": 309.6803,
        "meta_ephemeris_type": 0,
        "meta_classification_type": "U",
        "meta_norad_cat_id": 44804,
        "meta_element_set_no": 999,
        "meta_rev_at_epoch": 33674,
        "meta_bstar": 0.00027465,
        "meta_mean_motion_dot": 5.732e-05,
        "meta_mean_motion_ddot": 0,
        "tle_line1": "1 44804U 19081A   25357.16893539  .00005732  00000+0  27465-3 0  9998",
        "tle_line2": "2 44804  97.4569  56.6191 0013690  50.5641 309.6803 15.19238109336741"
      },
      "geometry": {
        "type": "Point",
        "coordinates": [
          118.69737079960639,
          -81.54418724156461
        ]
      }
    },
    {
      "type": "Feature",
      "properties": {
        "norad_id": 44819,
        "name": "GAOFEN-12 01",
        "group": "resource",
        "lat": -29.749644198653222,
        "lon": 7.982152165599715,
        "alt_km": 634.3679486823576,
        "timestamp": "2025-12-23T11:34:47.839668+00:00",
        "meta_object_name": "GAOFEN-12 01",
        "meta_object_id": "2019-082A",
        "meta_epoch": "2025-12-23T05:13:40.626048",
        "meta_mean_motion": 14.80668998,
        "meta_eccentricity": 0.0002054,
        "meta_inclination": 97.8124,
        "meta_ra_of_asc_node": 3.2238,
        "meta_arg_of_pericenter": 185.1344,
        "meta_mean_anomaly": 174.9847,
        "meta_ephemeris_type": 0,
        "meta_classification_type": "U",
        "meta_norad_cat_id": 44819,
        "meta_element_set_no": 999,
        "meta_rev_at_epoch": 32805,
        "meta_bstar": 6.7636e-05,
        "meta_mean_motion_dot": 4.69e-06,
        "meta_mean_motion_ddot": 0,
        "tle_line1": "1 44819U 19082A   25357.21783132  .00000469  00000+0  67636-4 0  9995",
        "tle_line2": "2 44819  97.8124   3.2238 0002054 185.1344 174.9847 14.80668998328051"
      },
      "geometry": {
        "type": "Point",
        "coordinates": [
          7.982152165599715,
          -29.749644198653222
        ]
      }
    },
    {
      "type": "Feature",
      "properties": {
        "norad_id": 44873,
        "name": "CSG-1",
        "group": "resource",
        "lat": 40.85191495091929,
        "lon": 5.523637456655703,
        "alt_km": 618.7189272327232,
        "timestamp": "2025-12-23T11:34:47.839687+00:00",
        "meta_object_name": "CSG-1",
        "meta_object_id": "2019-092A",
        "meta_epoch": "2025-12-23T01:14:07.325088",
        "meta_mean_motion": 14.82153716,
        "meta_eccentricity": 0.0001475,
        "meta_inclination": 97.8804,
        "meta_ra_of_asc_node": 178.2202,
        "meta_arg_of_pericenter": 85.6043,
        "meta_mean_anomaly": 274.5338,
        "meta_ephemeris_type": 0,
        "meta_classification_type": "U",
        "meta_norad_cat_id": 44873,
        "meta_element_set_no": 999,
        "meta_rev_at_epoch": 32538,
        "meta_bstar": 7.748e-05,
        "meta_mean_motion_dot": 5.65e-06,
        "meta_mean_motion_ddot": 0,
        "tle_line1": "1 44873U 19092A   25357.05147367  .00000565  00000+0  77480-4 0  9997",
        "tle_line2": "2 44873  97.8804 178.2202 0001475  85.6043 274.5338 14.82153716325380"
      },
      "geometry": {
        "type": "Point",
        "coordinates": [
          5.523637456655703,
          40.85191495091929
        ]
      }
    }
  ]
}